[
	{ "postcode": "M1 1AA", "lat": 52.615089, "lng": -1.2025751 },
	{ "postcode": "M1 1AD", "lat": 53.4838775, "lng": -2.2450223 },
	{ "postcode": "M43 6PB", "lat": 53.4814679, "lng": -2.1591455 },
	{ "postcode": "OL2 6UY", "lat": 53.5826088, "lng": -2.1340293 },
	{ "postcode": "OL3 7NL", "lat": 53.532708, "lng": -1.9834868 },
	{ "postcode": "M9 0SQ", "lat": 53.5362717, "lng": -2.2251954 },
	{ "postcode": "SK1 4DG", "lat": 53.4082647, "lng": -2.1457394 },
	{ "postcode": "M1 1BB", "lat": 53.4830353, "lng": -2.2323472 },
	{ "postcode": "M18 8NY", "lat": 53.4636699, "lng": -2.1663538 },
	{ "postcode": "M43 7RL", "lat": 53.4884133, "lng": -2.1543337 },
	{ "postcode": "M18 8WF", "lat": 53.4612513, "lng": -2.1668565 },
	{ "postcode": "SK1 4AF", "lat": 53.4086058, "lng": -2.1461467 },
	{ "postcode": "M7 4FA", "lat": 53.51122789999999, "lng": -2.2489478 },
	{ "postcode": "M18 8PD", "lat": 53.4629595, "lng": -2.1665469 },
	{ "postcode": "M43 6HW", "lat": 53.4784904, "lng": -2.1608821 },
	{ "postcode": "M1 1LQ", "lat": 53.48138609999999, "lng": -2.2357386 },
	{ "postcode": "SK1 4DE", "lat": 53.4070438, "lng": -2.1444867 },
	{ "postcode": "OL4 5LX", "lat": 53.5292271, "lng": -2.0852398 },
	{ "postcode": "SK22 4BQ", "lat": 53.3706559, "lng": -1.9999757 },
	{ "postcode": "M18 8UP", "lat": 53.4622043, "lng": -2.1666795 },
	{ "postcode": "M18 7TS", "lat": 53.4502845, "lng": -2.1674759 },
	{ "postcode": "OL8 2EP", "lat": 53.5287315, "lng": -2.0869133 }
]
